{
  "norad_id": 44886,
  "name": "SHUNTIAN",
  "history": [
    {
      "epoch": "2026-03-28T21:19:05.911104Z",
      "apogee_km": 591.0332489252651,
      "perigee_km": 575.3834484468825,
      "latitude_deg": -8.156957545552914e-05,
      "longitude_deg": 30.414933764679724,
      "height_km": 578.9470439052259,
      "semi_major_axis_km": 6961.3453486860735,
      "eccentricity": 0.00112405,
      "inclination_deg": 97.7997,
      "raan_deg": 176.4918,
      "arg_perigee_deg": 339.0801,
      "mean_anomaly_deg": 20.9957,
      "mean_motion_rev_day": 14.94730832
    },
    {
      "epoch": "2026-03-29T05:21:05.124672Z",
      "apogee_km": 590.9645588378453,
      "perigee_km": 575.42130136991,
      "latitude_deg": 2.5836725678381417e-06,
      "longitude_deg": -90.07920913508588,
      "height_km": 579.0666224143705,
      "semi_major_axis_km": 6961.329930103878,
      "eccentricity": 0.0011164,
      "inclination_deg": 97.7996,
      "raan_deg": 176.8243,
      "arg_perigee_deg": 337.3909,
      "mean_anomaly_deg": 22.6818,
      "mean_motion_rev_day": 14.94735798
    },
    {
      "epoch": "2026-03-30T05:27:02.664288Z",
      "apogee_km": 590.8956659755131,
      "perigee_km": 575.4236272746566,
      "latitude_deg": 8.011783401314024e-05,
      "longitude_deg": -91.56039120293394,
      "height_km": 579.2866131265553,
      "semi_major_axis_km": 6961.296646625085,
      "eccentricity": 0.00111129,
      "inclination_deg": 97.7996,
      "raan_deg": 177.8226,
      "arg_perigee_deg": 333.475,
      "mean_anomaly_deg": 26.5901,
      "mean_motion_rev_day": 14.94746518
    },
    {
      "epoch": "2026-03-30T05:27:02.672928Z",
      "apogee_km": 590.9056804467928,
      "perigee_km": 575.415401158999,
      "latitude_deg": -7.711788779394905e-06,
      "longitude_deg": -91.56041533663851,
      "height_km": 579.2776800032159,
      "semi_major_axis_km": 6961.297540802896,
      "eccentricity": 0.0011126,
      "inclination_deg": 97.7996,
      "raan_deg": 177.8226,
      "arg_perigee_deg": 333.5027,
      "mean_anomaly_deg": 26.5623,
      "mean_motion_rev_day": 14.9474623
    },
    {
      "epoch": "2026-03-30T11:52:37.928352Z",
      "apogee_km": 590.873533613315,
      "perigee_km": 575.4329741527872,
      "latitude_deg": 7.268743385768994e-06,
      "longitude_deg": 172.0447600046322,
      "height_km": 579.3610904236095,
      "semi_major_axis_km": 6961.29025388305,
      "eccentricity": 0.00110903,
      "inclination_deg": 97.7994,
      "raan_deg": 178.0886,
      "arg_perigee_deg": 332.3885,
      "mean_anomaly_deg": 27.6745,
      "mean_motion_rev_day": 14.94748577
    },
    {
      "epoch": "2026-03-30T23:07:24.697920Z",
      "apogee_km": 590.8621055860513,
      "perigee_km": 575.4481341225855,
      "latitude_deg": 1.7672195295721763e-05,
      "longitude_deg": 3.3538157780125704,
      "height_km": 579.4807710079382,
      "semi_major_axis_km": 6961.292119854318,
      "eccentricity": 0.00110712,
      "inclination_deg": 97.7994,
      "raan_deg": 178.5544,
      "arg_perigee_deg": 330.7366,
      "mean_anomaly_deg": 29.3233,
      "mean_motion_rev_day": 14.94747976
    },
    {
      "epoch": "2026-03-31T20:00:33.883200Z",
      "apogee_km": 590.808888388282,
      "perigee_km": 575.443987727801,
      "latitude_deg": -6.136932216446052e-05,
      "longitude_deg": 50.0734029482575,
      "height_km": 579.7042975657153,
      "semi_major_axis_km": 6961.263438058041,
      "eccentricity": 0.0011036,
      "inclination_deg": 97.7994,
      "raan_deg": 179.42,
      "arg_perigee_deg": 327.394,
      "mean_anomaly_deg": 32.6597,
      "mean_motion_rev_day": 14.94757214
    },
    {
      "epoch": "2026-04-01T20:06:30.419712Z",
      "apogee_km": 590.7277411762216,
      "perigee_km": 575.4979187981753,
      "latitude_deg": -2.735238945168804e-05,
      "longitude_deg": 48.59681846139667,
      "height_km": 580.0025433260784,
      "semi_major_axis_km": 6961.249829987198,
      "eccentricity": 0.0010939,
      "inclination_deg": 97.7995,
      "raan_deg": 180.4187,
      "arg_perigee_deg": 323.9947,
      "mean_anomaly_deg": 36.0535,
      "mean_motion_rev_day": 14.94761597
    },
    {
      "epoch": "2026-04-02T20:12:26.404992Z",
      "apogee_km": 590.60771130175,
      "perigee_km": 575.5464285400703,
      "latitude_deg": -1.3623795416960165e-05,
      "longitude_deg": 47.12193934789539,
      "height_km": 580.31956034816,
      "semi_major_axis_km": 6961.21406992091,
      "eccentricity": 0.0010818,
      "inclination_deg": 97.7993,
      "raan_deg": 181.4168,
      "arg_perigee_deg": 320.4632,
      "mean_anomaly_deg": 39.5798,
      "mean_motion_rev_day": 14.94773115
    },
    {
      "epoch": "2026-04-02T23:25:13.867680Z",
      "apogee_km": 590.5670803216717,
      "perigee_km": 575.5894687612736,
      "latitude_deg": -6.252377177923369e-05,
      "longitude_deg": -1.0749758782501133,
      "height_km": 580.3930447942015,
      "semi_major_axis_km": 6961.215274541472,
      "eccentricity": 0.00107579,
      "inclination_deg": 97.7995,
      "raan_deg": 181.5496,
      "arg_perigee_deg": 319.985,
      "mean_anomaly_deg": 40.0576,
      "mean_motion_rev_day": 14.94772727
    },
    {
      "epoch": "2026-04-03T20:18:21.718944Z",
      "apogee_km": 590.4797301992085,
      "perigee_km": 575.602300544756,
      "latitude_deg": -4.8586710888026293e-05,
      "longitude_deg": 45.649370984630664,
      "height_km": 580.6441310211834,
      "semi_major_axis_km": 6961.178015371982,
      "eccentricity": 0.0010686,
      "inclination_deg": 97.7991,
      "raan_deg": 182.4144,
      "arg_perigee_deg": 317.0801,
      "mean_anomaly_deg": 42.9584,
      "mean_motion_rev_day": 14.94784728
    },
    {
      "epoch": "2026-04-04T05:56:43.624896Z",
      "apogee_km": 590.4038479159299,
      "perigee_km": 575.6525819322887,
      "latitude_deg": -4.6669266032768694e-05,
      "longitude_deg": -98.93878116694975,
      "height_km": 580.8357601886457,
      "semi_major_axis_km": 6961.165214924109,
      "eccentricity": 0.00105954,
      "inclination_deg": 97.7993,
      "raan_deg": 182.8134,
      "arg_perigee_deg": 315.3057,
      "mean_anomaly_deg": 44.7308,
      "mean_motion_rev_day": 14.94788851
    },
    {
      "epoch": "2026-04-05T14:04:36.021792Z",
      "apogee_km": 590.2578238357646,
      "perigee_km": 575.6996248544974,
      "latitude_deg": 2.8500376082126465e-05,
      "longitude_deg": 139.10510405580976,
      "height_km": 581.2364220421786,
      "semi_major_axis_km": 6961.115724345131,
      "eccentricity": 0.00104568,
      "inclination_deg": 97.7992,
      "raan_deg": 184.1452,
      "arg_perigee_deg": 311.1852,
      "mean_anomaly_deg": 48.8466,
      "mean_motion_rev_day": 14.94804792
    }
  ]
}